[
  {
    "city": "Ādaži",
    "pickup_point": "Venipak locker, ELVI Venipak pakomāts",
    "address": "Rīgas gatve 51",
    "postal_code": 2164
  },
  {
    "city": "Ādaži",
    "pickup_point": "Venipak locker, TC Apelsīns Venipak pakomāts",
    "address": "Rīgas gatve 5",
    "postal_code": 2164
  },
  {
    "city": "Ādaži",
    "pickup_point": "Venipak locker, TOP Venipak pakomāts",
    "address": "Gaujas iela 20",
    "postal_code": 2164
  },
  {
    "city": "Ādaži",
    "pickup_point": "Venipak Pickup, TC Apelsīns DROGAS",
    "address": "Rīgas gatve 5",
    "postal_code": 2164
  },
  {
    "city": "Aglona",
    "pickup_point": "Venipak Pickup, Virši DUS Aglona",
    "address": "Somersētas iela 11a",
    "postal_code": 5304
  },
  {
    "city": "Aizkraukle",
    "pickup_point": "Venipak locker, TOP Venipak pakomāts",
    "address": "Gaismas iela 35",
    "postal_code": 5101
  },
  {
    "city": "Aizkraukle",
    "pickup_point": "Venipak locker, TOP Venipak pakomāts",
    "address": "Lāčplēša iela 7",
    "postal_code": 5101
  },
  {
    "city": "Aizkraukle",
    "pickup_point": "Venipak Pickup, TC IGA centrs DROGAS",
    "address": "Gaismas iela 35",
    "postal_code": 5101
  },
  {
    "city": "Aizpute",
    "pickup_point": "Venipak locker, MAXIMA Venipak pakomāts",
    "address": "Kalvenes iela 11",
    "postal_code": 3456
  },
  {
    "city": "Aknīste",
    "pickup_point": "Venipak locker, TOP Venipak pakomāts",
    "address": "Augšzemes iela 17",
    "postal_code": 5208
  },
  {
    "city": "Alūksne",
    "pickup_point": "Venipak locker, Alūksnes TOP Venipak pakomāts",
    "address": "Pils iela 38A",
    "postal_code": 4301
  },
  {
    "city": "Alūksne",
    "pickup_point": "Venipak locker, Mājai un Dārzam Venipak pakomāts",
    "address": "Latgales iela 3b",
    "postal_code": 4301
  },
  {
    "city": "Alūksne",
    "pickup_point": "Venipak Pickup, DROGAS",
    "address": "Pils iela 9b",
    "postal_code": 4301
  },
  {
    "city": "Amatnieki",
    "pickup_point": "Venipak Pickup, Virši DUS Jugla",
    "address": "Prauliņi, Amatnieki, Garkalnes pag., Ropažu nov",
    "postal_code": 2137
  },
  {
    "city": "Auce",
    "pickup_point": "Venipak locker, TOP Venipak pakomāts",
    "address": "Baznīcas iela 1",
    "postal_code": 3708
  },
  {
    "city": "Babīte",
    "pickup_point": "Venipak locker, ELVI Venipak pakomāts",
    "address": "Liepu aleja 15A",
    "postal_code": 2101
  },
  {
    "city": "Baldone",
    "pickup_point": "Venipak locker, MEGO Venipak pakomāts",
    "address": "Rīgas iela 79 k-1",
    "postal_code": 2125
  },
  {
    "city": "Baloži",
    "pickup_point": "Venipak locker, MEGO Venipak pakomāts",
    "address": "Rīgas iela 14",
    "postal_code": 2112
  },
  {
    "city": "Baloži",
    "pickup_point": "Venipak Pickup, Virši DUS Baloži",
    "address": "Cerības, Krustkalni, Ķekavas pag., Ķekavas nov.",
    "postal_code": 2111
  },
  {
    "city": "Balvi",
    "pickup_point": "Venipak locker, TOP Venipak pakomāts",
    "address": "Partizānu iela 6",
    "postal_code": 4501
  },
  {
    "city": "Balvi",
    "pickup_point": "Venipak Pickup, Virši DUS Balvi",
    "address": "Krasta iela 3, Balvi",
    "postal_code": 4501
  },
  {
    "city": "Bauska",
    "pickup_point": "Venipak locker, RIMI Venipak pakomāts",
    "address": "Zaļā iela 3",
    "postal_code": 3901
  },
  {
    "city": "Bauska",
    "pickup_point": "Venipak locker, RIMI Venipak pakomāts",
    "address": "Pionieru iela 2",
    "postal_code": 3901
  },
  {
    "city": "Bauska",
    "pickup_point": "Venipak Pickup, DROGAS",
    "address": "Pionieru iela 2",
    "postal_code": 3901
  },
  {
    "city": "Brocēni",
    "pickup_point": "Venipak locker, Citro Venipak pakomāts",
    "address": "Lielcieceres iela 2a",
    "postal_code": 3851
  },
  {
    "city": "Brocēni",
    "pickup_point": "Venipak Pickup, Virši DUS Brocēni",
    "address": "Liepnieku iela 1",
    "postal_code": 3851
  },
  {
    "city": "Cēsis",
    "pickup_point": "Venipak locker, TOP Venipak pakomāts",
    "address": "Gaujas iela 29",
    "postal_code": 4101
  },
  {
    "city": "Cēsis",
    "pickup_point": "Venipak locker, TOP Venipak pakomāts",
    "address": "Leona Paegles iela 5",
    "postal_code": 4101
  },
  {
    "city": "Cēsis",
    "pickup_point": "Venipak locker, TOP Venipak pakomāts",
    "address": "Valmieras iela 27",
    "postal_code": 4101
  },
  {
    "city": "Cēsis",
    "pickup_point": "Venipak Pickup, DROGAS",
    "address": "Uzvaras bulvāris 3",
    "postal_code": 4101
  },
  {
    "city": "Cēsis",
    "pickup_point": "Venipak Pickup, TC Globuss DROGAS",
    "address": "Raiņa iela 26/28",
    "postal_code": 4101
  },
  {
    "city": "Cēsis",
    "pickup_point": "Venipak Pickup, Virši DUS Cēsis Saulrīti",
    "address": "Piebalgas 99A, Vaives pag., Cēsu nov.,",
    "postal_code": 4136
  },
  {
    "city": "Cēsis",
    "pickup_point": "Venipak Pickup, Virši DUS Žagarkalns",
    "address": "Katrīnkalns 1 Drabešu pag, Cēsu nov",
    "postal_code": 4101
  },
  {
    "city": "Cesvaine",
    "pickup_point": "Venipak locker, TOP Venipak pakomāts",
    "address": "Augusta Saulieša iela 2",
    "postal_code": 4871
  },
  {
    "city": "Dagda",
    "pickup_point": "Venipak locker, TOP Venipak pakomāts",
    "address": "Daugavpils iela 6",
    "postal_code": 5674
  },
  {
    "city": "Daugavpils",
    "pickup_point": "Venipak locker, Labais Venipak pakomāts",
    "address": "Lielā iela 44",
    "postal_code": 5418
  },
  {
    "city": "Daugavpils",
    "pickup_point": "Venipak locker, MAXIMA Venipak pakomāts",
    "address": "Arhitektu iela 3",
    "postal_code": 5410
  },
  {
    "city": "Daugavpils",
    "pickup_point": "Venipak locker, MEGO Venipak pakomāts",
    "address": "Viestura iela 60",
    "postal_code": 5401
  },
  {
    "city": "Daugavpils",
    "pickup_point": "Venipak locker, TC Aveņu Centrs Venipak pakomāts",
    "address": "Raipoles iela 11a",
    "postal_code": 5422
  },
  {
    "city": "Daugavpils",
    "pickup_point": "Venipak locker, TOP Venipak pakomāts",
    "address": "Malu iela 5",
    "postal_code": 5401
  },
  {
    "city": "Daugavpils",
    "pickup_point": "Venipak locker, TOP Venipak pakomāts",
    "address": "18. novembra iela 372",
    "postal_code": 5413
  },
  {
    "city": "Daugavpils",
    "pickup_point": "Venipak locker, TOP Venipak pakomāts",
    "address": "Nometņu iela 9/11",
    "postal_code": 5401
  },
  {
    "city": "Daugavpils",
    "pickup_point": "Venipak locker, TOP Venipak pakomāts",
    "address": "Arodu iela 21",
    "postal_code": 5404
  },
  {
    "city": "Daugavpils",
    "pickup_point": "Venipak Pickup, DROGAS",
    "address": "Smilšu iela 92B",
    "postal_code": 5410
  },
  {
    "city": "Daugavpils",
    "pickup_point": "Venipak Pickup, TC Aveņu centrs DROGAS",
    "address": "Raipoles iela 11",
    "postal_code": 5422
  },
  {
    "city": "Daugavpils",
    "pickup_point": "Venipak Pickup, TC Solo DROGAS",
    "address": "Rīgas iela 9",
    "postal_code": 5401
  },
  {
    "city": "Daugavpils",
    "pickup_point": "Venipak Pickup, Venipak Daugavpils term.",
    "address": "Stiklu iela 16",
    "postal_code": 5404
  },
  {
    "city": "Dobele",
    "pickup_point": "Venipak locker, RIMI Venipak pakomāts",
    "address": "Brīvības iela 30",
    "postal_code": 3701
  },
  {
    "city": "Dobele",
    "pickup_point": "Venipak locker, TOP Venipak pakomāts",
    "address": "Muldavas iela 3A",
    "postal_code": 3701
  },
  {
    "city": "Dobele",
    "pickup_point": "Venipak locker, TOP Venipak pakomāts",
    "address": "Krasta iela 7",
    "postal_code": 3701
  },
  {
    "city": "Dobele",
    "pickup_point": "Venipak Pickup, DROGAS",
    "address": "Baznīcas iela 14",
    "postal_code": 3701
  },
  {
    "city": "Dreiliņi",
    "pickup_point": "Venipak Pickup, TC Sāga DROGAS",
    "address": "Biķeru iela 4",
    "postal_code": 2130
  },
  {
    "city": "Dundaga",
    "pickup_point": "Venipak locker, Citro Venipak pakomāts",
    "address": "Talsu iela 1",
    "postal_code": 3270
  },
  {
    "city": "Dzelmes",
    "pickup_point": "Venipak Pickup, Virši DUS Dzelmes",
    "address": "Dzelmeskrasti, Dzelmes, Jumpravas pag., Ogres no",
    "postal_code": 5022
  },
  {
    "city": "Ēdole",
    "pickup_point": "Venipak Pickup, Virši DUS Ēdole",
    "address": "Dārza iela 7",
    "postal_code": 3310
  },
  {
    "city": "Eleja",
    "pickup_point": "Venipak locker, TOP Venipak pakomāts",
    "address": "Lietuvas iela 44",
    "postal_code": 3023
  },
  {
    "city": "Engure",
    "pickup_point": "Venipak locker, Citro Venipak pakomāts",
    "address": "Jūras iela 81",
    "postal_code": 3113
  },
  {
    "city": "Ērgļi",
    "pickup_point": "Venipak locker, Ziedu veikala Venipak pakomāts",
    "address": "Rīgas iela 26",
    "postal_code": 4840
  },
  {
    "city": "Garkalne",
    "pickup_point": "Venipak locker, AIBE Venipak pakomāts",
    "address": "Vidzemes šoseja 1B",
    "postal_code": 2137
  },
  {
    "city": "Gauja",
    "pickup_point": "Venipak Pickup, Virši DUS Asni",
    "address": "Inčukalna pag., Siguldas nov.,",
    "postal_code": 2140
  },
  {
    "city": "Grenctāle",
    "pickup_point": "Venipak Pickup, Virši DUS Grenctāle",
    "address": "DUS Grenctāle, Brunavas pag., Bauskas nov",
    "postal_code": 3907
  },
  {
    "city": "Grobiņa",
    "pickup_point": "Venipak locker, TOP Venipak pakomāts",
    "address": "Lielā iela 74",
    "postal_code": 3430
  },
  {
    "city": "Gulbene",
    "pickup_point": "Venipak locker, MAXIMA Venipak pakomāts",
    "address": "Skolas iela 7",
    "postal_code": 4401
  },
  {
    "city": "Gulbenē",
    "pickup_point": "Venipak locker, RIMI Venipak pakomāts",
    "address": "Blaumaņa iela 24",
    "postal_code": 4401
  },
  {
    "city": "Gulbene",
    "pickup_point": "Venipak Pickup, DROGAS",
    "address": "Rīgas iela 46a",
    "postal_code": 4401
  },
  {
    "city": "Iecava",
    "pickup_point": "Venipak locker, MAXIMA Venipak pakomāts",
    "address": "Rīgas iela 27",
    "postal_code": 3913
  },
  {
    "city": "Iecava",
    "pickup_point": "Venipak locker, TOP Venipak pakomāts",
    "address": "Edvarta Virzas iela 2",
    "postal_code": 3913
  },
  {
    "city": "Ikšķile",
    "pickup_point": "Venipak locker, MAXIMA Venipak pakomāts",
    "address": "Skolas iela 4A",
    "postal_code": 5052
  },
  {
    "city": "Ilūkste",
    "pickup_point": "Venipak locker, TOP Venipak pakomāts",
    "address": "Stadiona iela 9",
    "postal_code": 5447
  },
  {
    "city": "Inčukalns",
    "pickup_point": "Venipak locker, AIBE Venipak pakomāts",
    "address": "Atmodas iela 6",
    "postal_code": 2141
  },
  {
    "city": "Jaunjelgava",
    "pickup_point": "Venipak locker, TOP Venipak pakomāts",
    "address": "Jelgavas iela 44",
    "postal_code": 5134
  },
  {
    "city": "Jaunmārupe",
    "pickup_point": "Venipak locker, Mazcenu alejas Venipak pakomāts",
    "address": "Mazcenu aleja 33/1",
    "postal_code": 2166
  },
  {
    "city": "Jaunolaine",
    "pickup_point": "Venipak locker, TOP Venipak pakomāts",
    "address": "Baznīcas iela 10",
    "postal_code": 2127
  },
  {
    "city": "Jēkabpils",
    "pickup_point": "Venipak locker, LaTS Venipak pakomāts",
    "address": "Celtnieku iela 1",
    "postal_code": 5201
  },
  {
    "city": "Jēkabpils",
    "pickup_point": "Venipak locker, TC AURA Venipak pakomāts",
    "address": "Nākotnes iela 2",
    "postal_code": 5201
  },
  {
    "city": "Jēkabpils",
    "pickup_point": "Venipak locker, TOP Venipak pakomāts",
    "address": "Pils Rajons 58",
    "postal_code": 5202
  },
  {
    "city": "Jēkabpils",
    "pickup_point": "Venipak locker, TOP Venipak pakomāts",
    "address": "Draudzības aleja 19",
    "postal_code": 5201
  },
  {
    "city": "Jēkabpils",
    "pickup_point": "Venipak Pickup, DROGAS",
    "address": "Pasta iela 10",
    "postal_code": 5201
  },
  {
    "city": "Jēkabpils",
    "pickup_point": "Venipak Pickup, TC Sēlija DROGAS",
    "address": "Vienības iela 7",
    "postal_code": 5201
  },
  {
    "city": "Jēkabpils",
    "pickup_point": "Venipak Pickup, Virši DUS Jēkabpils",
    "address": "Jāņa Akurātera iela 13,",
    "postal_code": 5201
  },
  {
    "city": "Jēkabpils",
    "pickup_point": "Venipak Pickup, Virši DUS Krustpils",
    "address": "Varoņu iela 10",
    "postal_code": 5202
  },
  {
    "city": "Jelgava",
    "pickup_point": "Venipak locker, ELVI Venipak pakomāts",
    "address": "Rūpniecības iela 77a",
    "postal_code": 3008
  },
  {
    "city": "Jelgava",
    "pickup_point": "Venipak locker, MAXIMA Venipak pakomāts",
    "address": "Meiju ceļš 10",
    "postal_code": 3001
  },
  {
    "city": "Jelgava",
    "pickup_point": "Venipak locker, RIMI Venipak pakomāts",
    "address": "Satiksmes iela 35",
    "postal_code": 3007
  },
  {
    "city": "Jelgava",
    "pickup_point": "Venipak locker, TC RAF Centrs Venipak pakomāts",
    "address": "Rīgas iela 48",
    "postal_code": 3004
  },
  {
    "city": "Jelgava",
    "pickup_point": "Venipak locker, TC Valdeka Venipak pakomāts",
    "address": "Rīgas iela 11A",
    "postal_code": 3002
  },
  {
    "city": "Jelgava",
    "pickup_point": "Venipak locker, TC Vivo centrs Venipak pakomāts",
    "address": "Katoļu iela 18",
    "postal_code": 3001
  },
  {
    "city": "Jelgava",
    "pickup_point": "Venipak Pickup, DROGAS",
    "address": "Rīgas iela 11a",
    "postal_code": 3002
  },
  {
    "city": "Jelgava",
    "pickup_point": "Venipak Pickup, DROGAS",
    "address": "Pasta iela 51/8",
    "postal_code": 3001
  },
  {
    "city": "Jelgava",
    "pickup_point": "Venipak Pickup, Virši DUS Jelgava",
    "address": "Lietuvas šoseja 70",
    "postal_code": 3008
  },
  {
    "city": "Jūrkalne",
    "pickup_point": "Venipak Pickup, Virši DUS Jūrkalne",
    "address": "Krastnieki, Jūrkalne, Jūrkalnes pag., Ventspils",
    "postal_code": 3626
  },
  {
    "city": "Jūrmala",
    "pickup_point": "Venipak locker, Kauguru RIMI Venipak pakomāts",
    "address": "Talsu šoseja 29",
    "postal_code": 2016
  },
  {
    "city": "Jūrmala",
    "pickup_point": "Venipak locker, Lielupes RIMI Venipak pakomāts",
    "address": "Viestura iela 22",
    "postal_code": 2010
  },
  {
    "city": "Jūrmala",
    "pickup_point": "Venipak locker, TC Liedags Venipak pakomāts",
    "address": "Ventspils šoseja 32",
    "postal_code": 2011
  },
  {
    "city": "Jūrmala",
    "pickup_point": "Venipak Pickup, DROGAS",
    "address": "Jomas iela 36",
    "postal_code": 2015
  },
  {
    "city": "Kalnciems",
    "pickup_point": "Venipak locker, Aibe Venipak pakomāts",
    "address": "Lielā iela 11",
    "postal_code": 3016
  },
  {
    "city": "Kandava",
    "pickup_point": "Venipak locker, MAXIMA Venipak pakomāts",
    "address": "Abavas iela 4b",
    "postal_code": 3120
  },
  {
    "city": "Kandava",
    "pickup_point": "Venipak Pickup, Virši DUS Kandava",
    "address": "Abavas iela 4",
    "postal_code": 3120
  },
  {
    "city": "Kārsava",
    "pickup_point": "Venipak locker, MEGO Venipak pakomāts",
    "address": "Malnavas iela 2",
    "postal_code": 5717
  },
  {
    "city": "Kārsava",
    "pickup_point": "Venipak Pickup, Virši DUS Kārsava",
    "address": "Passim, Malnavas pag., Ludzas nov.",
    "postal_code": 5750
  },
  {
    "city": "Kauguri",
    "pickup_point": "Venipak Pickup, DROGAS",
    "address": "Talsu šoseja 29",
    "postal_code": 2016
  },
  {
    "city": "Ķegums",
    "pickup_point": "Venipak locker, ELVI Venipak pakomāts",
    "address": "Ķeguma prospekts 5C",
    "postal_code": 5020
  },
  {
    "city": "Ķekava",
    "pickup_point": "Venipak locker, TC Liiba Venipak pakomāts",
    "address": "Rīgas iela 22A",
    "postal_code": 2123
  },
  {
    "city": "Ķekava",
    "pickup_point": "Venipak Pickup, TC Liiba DROGAS",
    "address": "Rīgas iela 22a",
    "postal_code": 2123
  },
  {
    "city": "Koknese",
    "pickup_point": "Venipak locker, MAXIMA Venipak pakomāts",
    "address": "1905. gada iela 8A",
    "postal_code": 5113
  },
  {
    "city": "Krāslava",
    "pickup_point": "Venipak locker, TOP Venipak pakomāts",
    "address": "Rēzeknes iela 7",
    "postal_code": 5601
  },
  {
    "city": "Krāslava",
    "pickup_point": "Venipak Pickup, DROGAS",
    "address": "Rīgas iela 34",
    "postal_code": 5601
  },
  {
    "city": "Krustkalni",
    "pickup_point": "Venipak locker, TC A7 Venipak pakomāts",
    "address": "Džutas",
    "postal_code": 2111
  },
  {
    "city": "Krustkalni",
    "pickup_point": "Venipak Pickup, TC A7 DROGAS",
    "address": "Džutas",
    "postal_code": 2111
  },
  {
    "city": "Kuldīga",
    "pickup_point": "Venipak locker, Citro Venipak pakomāts",
    "address": "Stendes iela 23A",
    "postal_code": 3301
  },
  {
    "city": "Kuldīga",
    "pickup_point": "Venipak locker, RIMI Venipak pakomāts",
    "address": "Sūru iela 2",
    "postal_code": 3301
  },
  {
    "city": "Kuldīga",
    "pickup_point": "Venipak Pickup, DROGAS",
    "address": "Liepājas iela 44",
    "postal_code": 3301
  },
  {
    "city": "Lapmežciems",
    "pickup_point": "Venipak locker, Citro Venipak pakomāts",
    "address": "Talsu šosejas 8 km",
    "postal_code": 3118
  },
  {
    "city": "Lielvārde",
    "pickup_point": "Venipak locker, MAXIMA Venipak pakomāts",
    "address": "Lāčplēša iela 14",
    "postal_code": 5070
  },
  {
    "city": "Liepāja",
    "pickup_point": "Venipak locker, TC Kurzeme Venipak pakomāts",
    "address": "Lielā iela 13",
    "postal_code": 3401
  },
  {
    "city": "Liepāja",
    "pickup_point": "Venipak locker, MAXIMA Venipak pakomāts",
    "address": "Ganību iela 167",
    "postal_code": 3407
  },
  {
    "city": "Liepāja",
    "pickup_point": "Venipak locker, RIMI Venipak pakomāts",
    "address": "Ziemeļu iela 13",
    "postal_code": 3405
  },
  {
    "city": "Liepāja",
    "pickup_point": "Venipak locker, TC Baata Venipak pakomāts",
    "address": "Klaipēdas 104C",
    "postal_code": 3416
  },
  {
    "city": "Liepāja",
    "pickup_point": "Venipak locker, TC Rietumu centrs Venipak pakomāts",
    "address": "Jaunā ostmala 3/5",
    "postal_code": 3401
  },
  {
    "city": "Liepāja",
    "pickup_point": "Venipak locker, TOP Venipak pakomāts",
    "address": "Pulkveža Brieža iela 14",
    "postal_code": 3414
  },
  {
    "city": "Liepāja",
    "pickup_point": "Venipak Pickup, DROGAS",
    "address": "O. Kalpaka iela 74",
    "postal_code": 3405
  },
  {
    "city": "Liepāja",
    "pickup_point": "Venipak Pickup, DROGAS",
    "address": "Lielā iela 12",
    "postal_code": 3401
  },
  {
    "city": "Liepāja",
    "pickup_point": "Venipak Pickup, TC Rietumu centrs DROGAS",
    "address": "Jaunā Ostmala 3/5",
    "postal_code": 3416
  },
  {
    "city": "Liepāja",
    "pickup_point": "Venipak Pickup, TC Sala XL DROGAS",
    "address": "Klaipēdas iela 62",
    "postal_code": 3416
  },
  {
    "city": "Liepāja",
    "pickup_point": "Venipak Pickup, Venipak Liepāja terminal",
    "address": "Cukuru iela 1",
    "postal_code": 3401
  },
  {
    "city": "Liepāja",
    "pickup_point": "Venipak Pickup, Virši DUS Cukurs",
    "address": "Cukura iela 29",
    "postal_code": 3414
  },
  {
    "city": "Liezēre",
    "pickup_point": "Venipak Pickup, Virši DUS Liezēre",
    "address": "Ceļmalas, Liezēres pag., Madonas nov.,",
    "postal_code": 4884
  },
  {
    "city": "Limbaži",
    "pickup_point": "Venipak locker, TOP Venipak pakomāts",
    "address": "Rīgas iela 23A",
    "postal_code": 4001
  },
  {
    "city": "Limbaži",
    "pickup_point": "Venipak Pickup, DROGAS",
    "address": "Rīgas iela 7",
    "postal_code": 4001
  },
  {
    "city": "Līvāni",
    "pickup_point": "Venipak locker, RIMI Venipak pakomāts",
    "address": "Rīgas iela 89",
    "postal_code": 5316
  },
  {
    "city": "Līvāni",
    "pickup_point": "Venipak Pickup, DROGAS",
    "address": "Domes iela 4",
    "postal_code": 5316
  },
  {
    "city": "Ludza",
    "pickup_point": "Venipak locker, MEGO Venipak pakomāts",
    "address": "Raiņa iela 40a",
    "postal_code": 5701
  },
  {
    "city": "Ludza",
    "pickup_point": "Venipak Pickup, Virši DUS Ludza",
    "address": "Bērziņi-S, Cirmas pag., Ludzas nov.,",
    "postal_code": 5735
  },
  {
    "city": "Madona",
    "pickup_point": "Venipak locker, Labais Venipak pakomāts",
    "address": "Saules iela 55A",
    "postal_code": 4801
  },
  {
    "city": "Madona",
    "pickup_point": "Venipak Pickup, DROGAS",
    "address": "Saules iela 4",
    "postal_code": 4801
  },
  {
    "city": "Mālpils",
    "pickup_point": "Venipak locker, TOP Venipak pakomāts",
    "address": "Pirts iela 5",
    "postal_code": 2152
  },
  {
    "city": "Mālpils",
    "pickup_point": "Venipak Pickup, Virši DUS Mālpils",
    "address": "Skulmes iela 5,",
    "postal_code": 2152
  },
  {
    "city": "Malta",
    "pickup_point": "Venipak locker, TOP Venipak pakomāts",
    "address": "1.maija iela 79a",
    "postal_code": 4630
  },
  {
    "city": "Mārupe",
    "pickup_point": "Venipak locker, TOP Venipak pakomāts",
    "address": "Daugavas iela 27",
    "postal_code": 2167
  },
  {
    "city": "Mārupe",
    "pickup_point": "Venipak Pickup, Venipak Riga termināls",
    "address": "Kalniņi B",
    "postal_code": 2167
  },
  {
    "city": "Nākotne",
    "pickup_point": "Venipak Pickup, Virši DUS Nākotne",
    "address": "DUS pie a/c Jelgava-Dobele 24,5. km, Glūdas pag.",
    "postal_code": 3040
  },
  {
    "city": "Nereta",
    "pickup_point": "Venipak locker, TOP Venipak pakomāts",
    "address": "Raiņa iela 6",
    "postal_code": 5118
  },
  {
    "city": "Ogre",
    "pickup_point": "Venipak locker, MEGO Venipak pakomāts",
    "address": "Skolas iela 4",
    "postal_code": 5001
  },
  {
    "city": "Ogre",
    "pickup_point": "Venipak locker, TC Dauga Venipak pakomāts",
    "address": "Rīgas iela 23",
    "postal_code": 5001
  },
  {
    "city": "Ogre",
    "pickup_point": "Venipak locker, TC Ogres Prestižs Venipak pakomāts",
    "address": "Mednieku iela 21/23",
    "postal_code": 5001
  },
  {
    "city": "Ogre",
    "pickup_point": "Venipak Pickup, DROGAS",
    "address": "Mālkalnes prospekts 2b",
    "postal_code": 5001
  },
  {
    "city": "Ogre",
    "pickup_point": "Venipak Pickup, TC Dauga DROGAS",
    "address": "Rīgas iela 23",
    "postal_code": 5001
  },
  {
    "city": "Olaine",
    "pickup_point": "Venipak locker, TC Olānija Venipak pakomāts",
    "address": "Zeiferta 6",
    "postal_code": 2114
  },
  {
    "city": "Olaine",
    "pickup_point": "Venipak locker, TOP Venipak pakomāts",
    "address": "Stacijas iela 16",
    "postal_code": 2114
  },
  {
    "city": "Olaine",
    "pickup_point": "Venipak Pickup, DROGAS",
    "address": "Zemgales iela 27a",
    "postal_code": 2114
  },
  {
    "city": "Ozolnieki",
    "pickup_point": "Venipak locker, ELVI Venipak pakomāts",
    "address": "Rīgas iela 42",
    "postal_code": 3018
  },
  {
    "city": "Piņķi",
    "pickup_point": "Venipak locker, ELVI Venipak pakomāts",
    "address": "Rigas iela 8",
    "postal_code": 2107
  },
  {
    "city": "Pļaviņas",
    "pickup_point": "Venipak locker, TOP Venipak pakomāts",
    "address": "Rīgas iela 13A",
    "postal_code": 5120
  },
  {
    "city": "Pļaviņas",
    "pickup_point": "Venipak Pickup, Virši DUS Pļaviņas",
    "address": "Rīgas iela 31",
    "postal_code": 5120
  },
  {
    "city": "Preiļi",
    "pickup_point": "Venipak locker, TOP Venipak pakomāts",
    "address": "Brīvības iela 4",
    "postal_code": 5301
  },
  {
    "city": "Priekule",
    "pickup_point": "Venipak locker, TOP Venipak pakomāts",
    "address": "Galvenā iela 1",
    "postal_code": 3434
  },
  {
    "city": "Pūre",
    "pickup_point": "Venipak Pickup, Virši DUS Pūre",
    "address": "Daigones iela 13a",
    "postal_code": 3124
  },
  {
    "city": "Ragana",
    "pickup_point": "Venipak locker, ELVI Venipak pakomāts",
    "address": "Tirgus iela 10",
    "postal_code": 2144
  },
  {
    "city": "Ragana",
    "pickup_point": "Venipak Pickup, Virši DUS Ragana",
    "address": "Tirgus iela 4",
    "postal_code": 2144
  },
  {
    "city": "Rauna",
    "pickup_point": "Venipak locker, TOP Venipak pakomāts",
    "address": "Cēsu iela 2A",
    "postal_code": 4131
  },
  {
    "city": "Rēzekne",
    "pickup_point": "Venipak locker, Citro Venipak pakomāts",
    "address": "Ludzas iela 46",
    "postal_code": 4601
  },
  {
    "city": "Rēzekne",
    "pickup_point": "Venipak locker, Citro Venipak pakomāts",
    "address": "Stacijas ielā 20A",
    "postal_code": 4601
  },
  {
    "city": "Rēzekne",
    "pickup_point": "Venipak locker, MAXIMA Venipak pakomāts",
    "address": "Atbrīvošanas aleja 141a",
    "postal_code": 4604
  },
  {
    "city": "Rēzekne",
    "pickup_point": "Venipak locker, MAXIMA Venipak pakomāts",
    "address": "Maskavas iela 16",
    "postal_code": 4604
  },
  {
    "city": "Rēzekne",
    "pickup_point": "Venipak locker, RIMI Venipak pakomāts",
    "address": "Galdnieku iela 8",
    "postal_code": 4601
  },
  {
    "city": "Rēzekne",
    "pickup_point": "Venipak Pickup, DROGAS",
    "address": "Atbrīvošanas aleja 101",
    "postal_code": 4601
  },
  {
    "city": "Rēzekne",
    "pickup_point": "Venipak Pickup, DROGAS",
    "address": "Atbrīvošanas aleja 141a",
    "postal_code": 4604
  },
  {
    "city": "Rēzekne",
    "pickup_point": "Venipak Pickup, Venipak Rēzeknes Termināls",
    "address": "Varoņu iela 36",
    "postal_code": 4604
  },
  {
    "city": "Roja",
    "pickup_point": "Venipak locker, Citro Venipak pakomāts",
    "address": "Zvejnieku iela 1",
    "postal_code": 3264
  },
  {
    "city": "Ropaži",
    "pickup_point": "Venipak locker, LaTS Venipak pakomāts",
    "address": "Rīgas iela 10",
    "postal_code": 2135
  },
  {
    "city": "Rūjiena",
    "pickup_point": "Venipak locker, TOP Venipak pakomāts",
    "address": "Brīvības iela 8",
    "postal_code": 4240
  },
  {
    "city": "Rumbula",
    "pickup_point": "Venipak Pickup, Virši DUS Granīta",
    "address": "Granīta iela 13a",
    "postal_code": 1057
  },
  {
    "city": "Salacgrīva",
    "pickup_point": "Venipak locker, TOP Venipak pakomāts",
    "address": "Rīgas 13",
    "postal_code": 4033
  },
  {
    "city": "Salaspils",
    "pickup_point": "Venipak locker, AIBE Venipak pakomāts",
    "address": "Rīgas iela 38",
    "postal_code": 2169
  },
  {
    "city": "Salaspils",
    "pickup_point": "Venipak locker, ELVI Venipak pakomāts",
    "address": "Rīgas iela 24",
    "postal_code": 2121
  },
  {
    "city": "Salaspils",
    "pickup_point": "Venipak locker, MEGO Venipak pakomāts",
    "address": "Skolas iela 9",
    "postal_code": 2121
  },
  {
    "city": "Salaspils",
    "pickup_point": "Venipak locker, TOP Venipak pakomāts",
    "address": "Līvzemes iela 11/13",
    "postal_code": 2169
  },
  {
    "city": "Salaspils",
    "pickup_point": "Venipak Pickup, DROGAS",
    "address": "Skolas iela 11",
    "postal_code": 2121
  },
  {
    "city": "Saldus",
    "pickup_point": "Venipak locker, MAXIMA Venipak pakomāts",
    "address": "Brīvības iela 30",
    "postal_code": 3801
  },
  {
    "city": "Saldus",
    "pickup_point": "Venipak locker, TC Akvārijs Venipak pakomāts",
    "address": "Striķu iela 10c",
    "postal_code": 3801
  },
  {
    "city": "Saldus",
    "pickup_point": "Venipak Pickup, TC Akvārijs DROGAS",
    "address": "Striķu iela 10C",
    "postal_code": 3801
  },
  {
    "city": "Saulkrasti",
    "pickup_point": "Venipak locker, TOP Venipak pakomāts",
    "address": "Rīgas iela 51",
    "postal_code": 2160
  },
  {
    "city": "Saulkrasti",
    "pickup_point": "Venipak Pickup, DROGAS",
    "address": "Ainažu iela 30",
    "postal_code": 2160
  },
  {
    "city": "Saurieši",
    "pickup_point": "Venipak Pickup, Virši DUS Saurieši",
    "address": "Degvielas uzpildes stacija Saurieši,",
    "postal_code": 2118
  },
  {
    "city": "Sērene",
    "pickup_point": "Venipak Pickup, Virši DUS Sērene",
    "address": "Kalngali, Sērenes pag., Aizkraukles nov.,",
    "postal_code": 5123
  },
  {
    "city": "Sigulda",
    "pickup_point": "Venipak locker, ELVI Venipak pakomāts",
    "address": "Vidus iela 1",
    "postal_code": 2150
  },
  {
    "city": "Sigulda",
    "pickup_point": "Venipak locker, TC Raibais Suns Venipak pakomāts",
    "address": "Vidzemes šoseja 16",
    "postal_code": 2150
  },
  {
    "city": "Sigulda",
    "pickup_point": "Venipak Pickup, TC Raibais Suns DROGAS",
    "address": "Vidzemes šoseja 16",
    "postal_code": 2150
  },
  {
    "city": "Sigulda",
    "pickup_point": "Venipak Pickup, TC Šokolāde DROGAS",
    "address": "Strēlnieku iela 2",
    "postal_code": 2150
  },
  {
    "city": "Skrīveri",
    "pickup_point": "Venipak locker, TOP Venipak pakomāts",
    "address": "Daugavas iela 97",
    "postal_code": 5125
  },
  {
    "city": "Smiltene",
    "pickup_point": "Venipak locker, SC Centrs Venipak pakomāts",
    "address": "Baznīcas laukums 2",
    "postal_code": 4729
  },
  {
    "city": "Smiltene",
    "pickup_point": "Venipak Pickup, TC Centrs DROGAS",
    "address": "Baznīcas laukums 1",
    "postal_code": 4729
  },
  {
    "city": "Spilve",
    "pickup_point": "Venipak Pickup, Virši DUS Babīte",
    "address": "Viršvidi, Spilve, Babītes pag., Mārupes nov.,",
    "postal_code": 2101
  },
  {
    "city": "Stropica",
    "pickup_point": "Venipak Pickup, Virši DUS Ilgas",
    "address": "Ilgas, Stropica, Naujenes pag., Augšdaugavas nov",
    "postal_code": 5458
  },
  {
    "city": "Talsi",
    "pickup_point": "Venipak locker, RIMI Venipak pakomāts",
    "address": "Dundagas iela 18",
    "postal_code": 3201
  },
  {
    "city": "Talsi",
    "pickup_point": "Venipak locker, TC Jāņa centrs Venipak pakomāts",
    "address": "Rīgas iela 8",
    "postal_code": 3201
  },
  {
    "city": "Talsi",
    "pickup_point": "Venipak Pickup, DROGAS",
    "address": "Lielā iela 1",
    "postal_code": 3201
  },
  {
    "city": "Tukums",
    "pickup_point": "Venipak locker, MAXIMA Venipak pakomāts",
    "address": "Kurzemes iela 36",
    "postal_code": 3101
  },
  {
    "city": "Tukums",
    "pickup_point": "Venipak locker, Meža ielas 28 Venipak pakomāts",
    "address": "Meža iela 28",
    "postal_code": 3101
  },
  {
    "city": "Tukums",
    "pickup_point": "Venipak locker, RIMI Venipak pakomāts",
    "address": "Pasta iela 14",
    "postal_code": 3101
  },
  {
    "city": "Tukums",
    "pickup_point": "Venipak Pickup, DROGAS",
    "address": "Pasta iela 14",
    "postal_code": 3101
  },
  {
    "city": "Ugāle",
    "pickup_point": "Venipak Pickup, Virši DUS Ugāle",
    "address": "DUP Avenes Ugāle, Ugāles pag., Ventspils nov.",
    "postal_code": 3615
  },
  {
    "city": "Ulbroka",
    "pickup_point": "Venipak locker, ELVI Venipak pakomāts",
    "address": "Peldu iela 2",
    "postal_code": 2130
  },
  {
    "city": "Valdlauči",
    "pickup_point": "Venipak locker, TOP Venipak pakomāts",
    "address": "Atpūtas iela 5",
    "postal_code": 1076
  },
  {
    "city": "Valka",
    "pickup_point": "Venipak locker, TOP Venipak pakomāts",
    "address": "Rigas iela 17",
    "postal_code": 4701
  },
  {
    "city": "Valka",
    "pickup_point": "Venipak Pickup, TC Walk DROGAS",
    "address": "Ausekļa iela 53",
    "postal_code": 4701
  },
  {
    "city": "Valka",
    "pickup_point": "Venipak Pickup, Virši DUS Lugaži",
    "address": "Rīgas iela 80",
    "postal_code": 4701
  },
  {
    "city": "Valka",
    "pickup_point": "Venipak Pickup, Virši DUS Valka",
    "address": "Rūjienas iela 7",
    "postal_code": 4701
  },
  {
    "city": "Valle",
    "pickup_point": "Venipak Pickup, Virši DUS Valle",
    "address": "Rīgas iela 2",
    "postal_code": 5106
  },
  {
    "city": "Valmiera",
    "pickup_point": "Venipak locker, TOP Venipak pakomāts",
    "address": "Georga Apiņa iela 27B",
    "postal_code": 4201
  },
  {
    "city": "Valmiera",
    "pickup_point": "Venipak locker, TOP Venipak pakomāts",
    "address": "Ausekļa iela 29",
    "postal_code": 4201
  },
  {
    "city": "Valmiera",
    "pickup_point": "Venipak locker, TOP Venipak pakomāts",
    "address": "Valkas iela 1",
    "postal_code": 4201
  },
  {
    "city": "Valmiera",
    "pickup_point": "Venipak locker, TOP Venipak pakomāts",
    "address": "Pauku iela 1",
    "postal_code": 4201
  },
  {
    "city": "Valmiera",
    "pickup_point": "Venipak Pickup, DROGAS",
    "address": "Meža iela 7",
    "postal_code": 4201
  },
  {
    "city": "Valmiera",
    "pickup_point": "Venipak Pickup, DROGAS",
    "address": "Rīgas iela 20",
    "postal_code": 4201
  },
  {
    "city": "Vangaži",
    "pickup_point": "Venipak locker, ELVI Venipak pakomāts",
    "address": "Vidzemes iela 10",
    "postal_code": 2136
  },
  {
    "city": "Varakļāni",
    "pickup_point": "Venipak locker, TOP Venipak pakomāts",
    "address": "Pils iela 7D",
    "postal_code": 4838
  },
  {
    "city": "Vecbebri",
    "pickup_point": "Venipak Pickup, Virši DUS Bebri",
    "address": "Dīķmalas, Vecbebri, Bebru pag., Aizkraukles nov.",
    "postal_code": 5135
  },
  {
    "city": "Vecpiebalga",
    "pickup_point": "Venipak locker, TOP Venipak pakomāts",
    "address": "Alauksta iela 2",
    "postal_code": 4122
  },
  {
    "city": "Vecumnieki",
    "pickup_point": "Venipak locker, LaTS Venipak pakomāts",
    "address": "Rīgas iela 24B",
    "postal_code": 3933
  },
  {
    "city": "Ventspils",
    "pickup_point": "Venipak locker, Mājai un Dārzam Venipak pakomāts",
    "address": "Celtnieku iela 22",
    "postal_code": 3602
  },
  {
    "city": "Ventspils",
    "pickup_point": "Venipak locker, MEGO Venipak pakomāts",
    "address": "Ganību iela 22/24",
    "postal_code": 3601
  },
  {
    "city": "Ventspils",
    "pickup_point": "Venipak locker, MEGO Venipak pakomāts",
    "address": "Inženieru iela 65",
    "postal_code": 3601
  },
  {
    "city": "Ventspils",
    "pickup_point": "Venipak locker, RIMI Venipak pakomāts",
    "address": "Tārgales iela 62",
    "postal_code": 3604
  },
  {
    "city": "Ventspils",
    "pickup_point": "Venipak locker, TC Tobago Venipak pakomāts",
    "address": "Lielais prospekts 3/5",
    "postal_code": 3601
  },
  {
    "city": "Ventspils",
    "pickup_point": "Venipak Pickup, DROGAS",
    "address": "Kuldīgas iela 21",
    "postal_code": 3601
  },
  {
    "city": "Ventspils",
    "pickup_point": "Venipak Pickup, TC Tobago DROGAS",
    "address": "Lielais prospekts 3/5",
    "postal_code": 3601
  },
  {
    "city": "Viļāni",
    "pickup_point": "Venipak locker, ALBA Venipak pakomāts",
    "address": "Raiņa iela 23",
    "postal_code": 4650
  },
  {
    "city": "Zilāni",
    "pickup_point": "Venipak Pickup, Virši DUS Zīlāni",
    "address": "Zīlānu iela 145",
    "postal_code": 5222
  },
  {
    "city": NaN,
    "pickup_point": NaN,
    "address": NaN,
    "postal_code": NaN
  },
  {
    "city": "Rīga",
    "pickup_point": "Venipak locker, BC Jaunā Teika Venipak pakomāts",
    "address": "Gustava Zemgala gatve 74",
    "postal_code": 1039
  },
  {
    "city": "Rīga",
    "pickup_point": "Venipak locker, Brīvības ielas 49 Venipak pakomāts",
    "address": "Brīvības iela 49/53",
    "postal_code": 1010
  },
  {
    "city": "Rīga",
    "pickup_point": "Venipak locker, Fix Price Venipak pakomāts",
    "address": "Sarkandaugavas iela 6A",
    "postal_code": 1005
  },
  {
    "city": "Rīga",
    "pickup_point": "Venipak locker, MAXIMA Venipak pakomāts",
    "address": "Mūkusalas iela 73",
    "postal_code": 1004
  },
  {
    "city": "Rīga",
    "pickup_point": "Venipak locker, MAXIMA Venipak pakomāts",
    "address": "Augusta Dombrovska iela 74",
    "postal_code": 1015
  },
  {
    "city": "Rīga",
    "pickup_point": "Venipak locker, MAXIMA Venipak pakomāts",
    "address": "Grostonas iela 1",
    "postal_code": 1013
  },
  {
    "city": "Rīga",
    "pickup_point": "Venipak locker, MAXIMA Venipak pakomāts",
    "address": "Augusta Deglava iela 67",
    "postal_code": 1082
  },
  {
    "city": "Rīga",
    "pickup_point": "Venipak locker, MAXIMA Venipak pakomāts",
    "address": "Nīcgales iela 46A",
    "postal_code": 1035
  },
  {
    "city": "Rīga",
    "pickup_point": "Venipak locker, MAXIMA Venipak pakomāts",
    "address": "Pilsoņu iela 1-k1",
    "postal_code": 1002
  },
  {
    "city": "Rīga",
    "pickup_point": "Venipak locker, MAXIMA Venipak pakomāts",
    "address": "Rītupes iela 2",
    "postal_code": 1019
  },
  {
    "city": "Rīga",
    "pickup_point": "Venipak locker, MAXIMA Venipak pakomāts",
    "address": "Lidoņu iela 30a",
    "postal_code": 1055
  },
  {
    "city": "Rīga",
    "pickup_point": "Venipak locker, MAXIMA Venipak pakomāts",
    "address": "Burtnieku iela 39",
    "postal_code": 1084
  },
  {
    "city": "Rīga",
    "pickup_point": "Venipak locker, MAXIMA Venipak pakomāts",
    "address": "Gaigalas iela 29",
    "postal_code": 1016
  },
  {
    "city": "Rīga",
    "pickup_point": "Venipak locker, MAXIMA Venipak pakomāts",
    "address": "Jūrmalas gatve 85",
    "postal_code": 1029
  },
  {
    "city": "Rīga",
    "pickup_point": "Venipak locker, MAXIMA Venipak pakomāts",
    "address": "Vienības gat. 113",
    "postal_code": 1058
  },
  {
    "city": "Rīga",
    "pickup_point": "Venipak locker, MAXIMA Venipak pakomāts",
    "address": "Andreja Saharova iela 20A",
    "postal_code": 1021
  },
  {
    "city": "Rīga",
    "pickup_point": "Venipak locker, MAXIMA Venipak pakomāts",
    "address": "Slokas iela 115",
    "postal_code": 1067
  },
  {
    "city": "Rīga",
    "pickup_point": "Venipak locker, MAXIMA Venipak pakomāts",
    "address": "Ilūkstes iela 24a",
    "postal_code": 1082
  },
  {
    "city": "Rīga",
    "pickup_point": "Venipak locker, MEGO Venipak pakomāts",
    "address": "Mīlgrāvja iela 2",
    "postal_code": 1034
  },
  {
    "city": "Rīga",
    "pickup_point": "Venipak locker, MEGO Venipak pakomāts",
    "address": "Kleistu iela 9",
    "postal_code": 1067
  },
  {
    "city": "Rīga",
    "pickup_point": "Venipak locker, MEGO Venipak pakomāts",
    "address": "Dzirciema iela 31A",
    "postal_code": 1083
  },
  {
    "city": "Rīga",
    "pickup_point": "Venipak locker, MEGO Venipak pakomāts",
    "address": "Graudu iela 10",
    "postal_code": 1058
  },
  {
    "city": "Rīga",
    "pickup_point": "Venipak locker, MEGO Venipak pakomāts",
    "address": "Parādes iela 5B",
    "postal_code": 1016
  },
  {
    "city": "Rīga",
    "pickup_point": "Venipak locker, MEGO Venipak pakomāts",
    "address": "Dižozolu iela 2",
    "postal_code": 1058
  },
  {
    "city": "Rīga",
    "pickup_point": "Venipak locker, MEGO Venipak pakomāts",
    "address": "Kurzemes prospekts 132",
    "postal_code": 1069
  },
  {
    "city": "Rīga",
    "pickup_point": "Venipak locker, MEGO Venipak pakomāts",
    "address": "Prūšu iela 2",
    "postal_code": 1057
  },
  {
    "city": "Rīga",
    "pickup_point": "Venipak locker, MEGO Venipak pakomāts",
    "address": "Biķernieku iela 16A",
    "postal_code": 1039
  },
  {
    "city": "Rīga",
    "pickup_point": "Venipak locker, MEGO Venipak pakomāts",
    "address": "Gobas iela 13",
    "postal_code": 1016
  },
  {
    "city": "Rīga",
    "pickup_point": "Venipak locker, Neste Venipak pakomāts",
    "address": "Katoļu iela 4",
    "postal_code": 1003
  },
  {
    "city": "Rīga",
    "pickup_point": "Venipak locker, RIMI Gramzdas Venipak pakomāts",
    "address": "Imantas 15. līnija 7",
    "postal_code": 1029
  },
  {
    "city": "Rīga",
    "pickup_point": "Venipak locker, RIMI Venipak pakomāts",
    "address": "Augusta Dombrovska iela 23",
    "postal_code": 1015
  },
  {
    "city": "Rīga",
    "pickup_point": "Venipak locker, RIMI Venipak pakomāts",
    "address": "Biķernieku iela 160",
    "postal_code": 1079
  },
  {
    "city": "Rīga",
    "pickup_point": "Venipak locker, RIMI Venipak pakomāts",
    "address": "Krišjāņa Valdemāra iela 112",
    "postal_code": 1013
  },
  {
    "city": "Rīga",
    "pickup_point": "Venipak locker, RIMI Venipak pakomāts",
    "address": "Anniņmuižas bulvāris 40A",
    "postal_code": 1069
  },
  {
    "city": "Rīga",
    "pickup_point": "Venipak locker, RIMI Venipak pakomāts",
    "address": "Dzelzavas iela 78",
    "postal_code": 1082
  },
  {
    "city": "Rīga",
    "pickup_point": "Venipak locker, RIMI Venipak pakomāts",
    "address": "Kalnciema iela 41",
    "postal_code": 1046
  },
  {
    "city": "Rīga",
    "pickup_point": "Venipak locker, RIMI Venipak pakomāts",
    "address": "Salaspils iela 20b",
    "postal_code": 1057
  },
  {
    "city": "Rīga",
    "pickup_point": "Venipak locker, RIMI Venipak pakomāts",
    "address": "Kreimeņu iela 4",
    "postal_code": 1015
  },
  {
    "city": "Rīga",
    "pickup_point": "Venipak locker, RIMI Venipak pakomāts",
    "address": "Pulkveža Brieža iela 33A",
    "postal_code": 1045
  },
  {
    "city": "Rīga",
    "pickup_point": "Venipak locker, RIMI Venipak pakomāts",
    "address": "Augusta Deglava iela 110",
    "postal_code": 1082
  },
  {
    "city": "Rīga",
    "pickup_point": "Venipak locker, RIMI Venipak pakomāts",
    "address": "Stirnu iela 26",
    "postal_code": 1084
  },
  {
    "city": "Rīga",
    "pickup_point": "Venipak locker, RIMI Venipak pakomāts",
    "address": "Vaidelotes iela 11a",
    "postal_code": 1055
  },
  {
    "city": "Rīga",
    "pickup_point": "Venipak locker, RIMI Venipak pakomāts",
    "address": "Latgales iela 400",
    "postal_code": 1063
  },
  {
    "city": "Rīga",
    "pickup_point": "Venipak locker, TC Āgenskalna Venipak pakomāts",
    "address": "Mārupes iela 10A",
    "postal_code": 1002
  },
  {
    "city": "Rīga",
    "pickup_point": "Venipak locker, TC Aleja Venipak pakomāts",
    "address": "Vienības gatve 194a",
    "postal_code": 1058
  },
  {
    "city": "Rīga",
    "pickup_point": "Venipak locker, TC Alfa Venipak pakomāts",
    "address": "Brīvības gatve 372",
    "postal_code": 1006
  },
  {
    "city": "Rīga",
    "pickup_point": "Venipak locker, TC Bērnu pasaule Venipak pakomāts",
    "address": "Matīsa iela 25",
    "postal_code": 1001
  },
  {
    "city": "Rīga",
    "pickup_point": "Venipak locker, TC Damme Venipak pakomāts",
    "address": "Kurzemes prospekts 1",
    "postal_code": 1067
  },
  {
    "city": "Rīga",
    "pickup_point": "Venipak locker, TC Dole Venipak pakomāts",
    "address": "Latgales iela 357",
    "postal_code": 1063
  },
  {
    "city": "Rīga",
    "pickup_point": "Venipak locker, TC DOMINA Venipak pakomāts",
    "address": "Ieriķu iela 3",
    "postal_code": 1084
  },
  {
    "city": "Rīga",
    "pickup_point": "Venipak locker, TC Gaiļezers Venipak pakomāts",
    "address": "Gaiļezera iela 8",
    "postal_code": 1079
  },
  {
    "city": "Rīga",
    "pickup_point": "Venipak locker, TC IXO Venipak pakomāts",
    "address": "Anniņmuižas iela 17",
    "postal_code": 1029
  },
  {
    "city": "Rīga",
    "pickup_point": "Venipak locker, TC Jugla Centrs Venipak pakomāts",
    "address": "Juglas krastmala 2",
    "postal_code": 1024
  },
  {
    "city": "Rīga",
    "pickup_point": "Venipak locker, TC Maska Venipak pakomāts",
    "address": "Latgales iela 267",
    "postal_code": 1063
  },
  {
    "city": "Rīga",
    "pickup_point": "Venipak locker, TC Mežciems Venipak pakomāts",
    "address": "Biķernieku iela 143",
    "postal_code": 1021
  },
  {
    "city": "Rīga",
    "pickup_point": "Venipak locker, TC Minska Venipak pakomāts",
    "address": "Nīcgales iela 2",
    "postal_code": 1035
  },
  {
    "city": "Rīga",
    "pickup_point": "Venipak locker, TC Mols Venipak pakomāts",
    "address": "Krasta iela 46",
    "postal_code": 1003
  },
  {
    "city": "Rīga",
    "pickup_point": "Venipak locker, TC Olimpia Venipak pakomāts",
    "address": "Āzenes iela 5",
    "postal_code": 1048
  },
  {
    "city": "Rīga",
    "pickup_point": "Venipak locker, TC Origo Venipak pakomāts",
    "address": "Satekles iela 2B",
    "postal_code": 1050
  },
  {
    "city": "Rīga",
    "pickup_point": "Venipak locker, TC Ozols Venipak pakomāts",
    "address": "Mazā Rencēnu iela 1",
    "postal_code": 1073
  },
  {
    "city": "Rīga",
    "pickup_point": "Venipak locker, TC Rīga Plaza Venipak pakomāts",
    "address": "Mūkusalas iela 71",
    "postal_code": 1004
  },
  {
    "city": "Rīga",
    "pickup_point": "Venipak locker, TC Sky and More Venipak pakomāts",
    "address": "Duntes iela 19A",
    "postal_code": 1005
  },
  {
    "city": "Rīga",
    "pickup_point": "Venipak locker, TC Spice Venipak pakomāts",
    "address": "Jaunmoku iela 21",
    "postal_code": 1046
  },
  {
    "city": "Rīga",
    "pickup_point": "Venipak locker, TC Valdeķu ielas 39 Venipak pakomāts",
    "address": "Valdeķu iela 39",
    "postal_code": 1058
  },
  {
    "city": "Rīga",
    "pickup_point": "Venipak locker, TC Venta Venipak pakomāts",
    "address": "Zolitūdes iela 34",
    "postal_code": 1029
  },
  {
    "city": "Rīga",
    "pickup_point": "Venipak locker, TOP Venipak pakomāts",
    "address": "Viestura prospekts 35a",
    "postal_code": 1005
  },
  {
    "city": "Rīga",
    "pickup_point": "Venipak locker, TOP Venipak pakomāts",
    "address": "Zalves iela 46A",
    "postal_code": 1046
  },
  {
    "city": "Rīga",
    "pickup_point": "Venipak Pickup, DROGAS",
    "address": "G. Astras iela 2 - k2",
    "postal_code": 1084
  },
  {
    "city": "Rīga",
    "pickup_point": "Venipak Pickup, DROGAS",
    "address": "Zolitūdes iela 34",
    "postal_code": 1029
  },
  {
    "city": "Rīga",
    "pickup_point": "Venipak Pickup, DROGAS",
    "address": "Brīvības gatve 372",
    "postal_code": 1006
  },
  {
    "city": "Rīga",
    "pickup_point": "Venipak Pickup, DROGAS",
    "address": "Ulbrokas iela 22A",
    "postal_code": 1021
  },
  {
    "city": "Rīga",
    "pickup_point": "Venipak Pickup, DROGAS",
    "address": "Melīdas iela 9",
    "postal_code": 1015
  },
  {
    "city": "Rīga",
    "pickup_point": "Venipak Pickup, DROGAS",
    "address": "Stirnu iela 26",
    "postal_code": 1035
  },
  {
    "city": "Rīga",
    "pickup_point": "Venipak Pickup, DROGAS",
    "address": "Anniņmuižas bulvāris 40A",
    "postal_code": 1067
  },
  {
    "city": "Rīga",
    "pickup_point": "Venipak Pickup, DROGAS",
    "address": "A. Deglava iela 100",
    "postal_code": 1082
  },
  {
    "city": "Rīga",
    "pickup_point": "Venipak Pickup, DROGAS",
    "address": "Sarkandaugavas iela 2",
    "postal_code": 1005
  },
  {
    "city": "Rīga",
    "pickup_point": "Venipak Pickup, DROGAS",
    "address": "Mārupes iela 15a",
    "postal_code": 1002
  },
  {
    "city": "Rīga",
    "pickup_point": "Venipak Pickup, DROGAS",
    "address": "Stūrmaņu iela 29",
    "postal_code": 1016
  },
  {
    "city": "Rīga",
    "pickup_point": "Venipak Pickup, DROGAS",
    "address": "Biķernieku iela 143",
    "postal_code": 1021
  },
  {
    "city": "Rīga",
    "pickup_point": "Venipak Pickup, DROGAS",
    "address": "Tērbatas iela 9/10",
    "postal_code": 1011
  },
  {
    "city": "Rīga",
    "pickup_point": "Venipak Pickup, DROGAS",
    "address": "Kaļķu iela 5",
    "postal_code": 1050
  },
  {
    "city": "Rīga",
    "pickup_point": "Venipak Pickup, DROGAS",
    "address": "Kr. Barona iela 4",
    "postal_code": 1050
  },
  {
    "city": "Rīga",
    "pickup_point": "Venipak Pickup, DROGAS",
    "address": "A. Čaka iela 53",
    "postal_code": 1011
  },
  {
    "city": "Rīga",
    "pickup_point": "Venipak Pickup, DROGAS",
    "address": "Brīvības iela 194",
    "postal_code": 1012
  },
  {
    "city": "Rīga",
    "pickup_point": "Venipak Pickup, DROGAS",
    "address": "Kr. Valdemāra iela 14",
    "postal_code": 1010
  },
  {
    "city": "Rīga",
    "pickup_point": "Venipak Pickup, DROGAS",
    "address": "Marijas iela 9",
    "postal_code": 1050
  },
  {
    "city": "Rīga",
    "pickup_point": "Venipak Pickup, DROGAS",
    "address": "Antonijas iela 9",
    "postal_code": 1010
  },
  {
    "city": "Rīga",
    "pickup_point": "Venipak Pickup, DROGAS",
    "address": "Brīvības iela 58",
    "postal_code": 1010
  },
  {
    "city": "Rīga",
    "pickup_point": "Venipak Pickup, DROGAS",
    "address": "Avotu iela 26",
    "postal_code": 1011
  },
  {
    "city": "Rīga",
    "pickup_point": "Venipak Pickup, DROGAS",
    "address": "Kr. Valdemāra iela 145/1",
    "postal_code": 1013
  },
  {
    "city": "Rīga",
    "pickup_point": "Venipak Pickup, DROGAS",
    "address": "Kr. Barona iela 63",
    "postal_code": 1001
  },
  {
    "city": "Rīga",
    "pickup_point": "Venipak Pickup, DROGAS",
    "address": "Slokas iela 115",
    "postal_code": 1067
  },
  {
    "city": "Rīga",
    "pickup_point": "Venipak Pickup, DROGAS",
    "address": "Latgales iela 250",
    "postal_code": 1019
  },
  {
    "city": "Rīga",
    "pickup_point": "Venipak Pickup, DROGAS",
    "address": "Brīvības gatve 432",
    "postal_code": 1024
  },
  {
    "city": "Rīga",
    "pickup_point": "Venipak Pickup, DROGAS",
    "address": "Vienības gatve 111",
    "postal_code": 1058
  },
  {
    "city": "Rīga",
    "pickup_point": "Venipak Pickup, DROGAS",
    "address": "Melnsila iela 22",
    "postal_code": 1046
  },
  {
    "city": "Rīga",
    "pickup_point": "Venipak Pickup, DROGAS",
    "address": "Dižozolu iela 21",
    "postal_code": 1058
  },
  {
    "city": "Rīga",
    "pickup_point": "Venipak Pickup, DROGAS",
    "address": "Ulmaņa gatve 88a",
    "postal_code": 1046
  },
  {
    "city": "Rīga",
    "pickup_point": "Venipak Pickup, DROGAS",
    "address": "Mazā Stacijas iela 2a",
    "postal_code": 1083
  },
  {
    "city": "Rīga",
    "pickup_point": "Venipak Pickup, DROGAS",
    "address": "Satekles iela 2b",
    "postal_code": 1050
  },
  {
    "city": "Rīga",
    "pickup_point": "Venipak Pickup, DROGAS",
    "address": "Kurzemes prospekts 141",
    "postal_code": 1069
  },
  {
    "city": "Rīga",
    "pickup_point": "Venipak Pickup, DROGAS",
    "address": "Mūkusalas iela 73",
    "postal_code": 1004
  },
  {
    "city": "Rīga",
    "pickup_point": "Venipak Pickup, DROGAS",
    "address": "A.Saharova iela 20a",
    "postal_code": 1021
  },
  {
    "city": "Rīga",
    "pickup_point": "Venipak Pickup, DROGAS",
    "address": "Rusova iela 1",
    "postal_code": 1026
  },
  {
    "city": "Rīga",
    "pickup_point": "Venipak Pickup, TC Āgenskalns DROGAS",
    "address": "Pilsoņu iela 1C",
    "postal_code": 1002
  },
  {
    "city": "Rīga",
    "pickup_point": "Venipak Pickup, TC Akropole DROGAS",
    "address": "Latgales iela 257",
    "postal_code": 1019
  },
  {
    "city": "Rīga",
    "pickup_point": "Venipak Pickup, TC Aleja DROGAS",
    "address": "Vienības gatve 194a",
    "postal_code": 1058
  },
  {
    "city": "Rīga",
    "pickup_point": "Venipak Pickup, TC Damme DROGAS",
    "address": "Kurzemes prospekts 1",
    "postal_code": 1067
  },
  {
    "city": "Rīga",
    "pickup_point": "Venipak Pickup, TC Dole DROGAS",
    "address": "Latgales iela 357",
    "postal_code": 1063
  },
  {
    "city": "Rīga",
    "pickup_point": "Venipak Pickup, TC Domina DROGAS",
    "address": "Ieriķu iela 3",
    "postal_code": 1084
  },
  {
    "city": "Rīga",
    "pickup_point": "Venipak Pickup, TC Gaiļezers DROGAS",
    "address": "Gaiļezera iela 8",
    "postal_code": 1079
  },
  {
    "city": "Rīga",
    "pickup_point": "Venipak Pickup, TC Galerija Centrs DROGAS",
    "address": "Audēju iela 16",
    "postal_code": 1050
  },
  {
    "city": "Rīga",
    "pickup_point": "Venipak Pickup, TC Minska DROGAS",
    "address": "Nīcgales iela 2",
    "postal_code": 1035
  },
  {
    "city": "Rīga",
    "pickup_point": "Venipak Pickup, TC Mols DROGAS",
    "address": "Krasta iela 46",
    "postal_code": 1003
  },
  {
    "city": "Rīga",
    "pickup_point": "Venipak Pickup, TC Origo DROGAS",
    "address": "Stacijas laukums 2",
    "postal_code": 1050
  },
  {
    "city": "Rīga",
    "pickup_point": "Venipak Pickup, TC Ozols DROGAS",
    "address": "Mazā Rancēnu iela 1A",
    "postal_code": 1073
  },
  {
    "city": "Rīga",
    "pickup_point": "Venipak Pickup, TC Rīga Plaza DROGAS",
    "address": "Mūkusalas iela 71",
    "postal_code": 1004
  },
  {
    "city": "Rīga",
    "pickup_point": "Venipak Pickup, TC Spice DROGAS",
    "address": "Lielirbes iela 29",
    "postal_code": 1046
  },
  {
    "city": "Rīga",
    "pickup_point": "Venipak Pickup, TC Tālava DROGAS",
    "address": "A. Saharova iela 21",
    "postal_code": 1021
  },
  {
    "city": "Rīga",
    "pickup_point": "Venipak Pickup, TC Teika Plaza DROGAS",
    "address": "Brīvības iela 201",
    "postal_code": 1039
  },
  {
    "city": "Rīga",
    "pickup_point": "Venipak Pickup, TC ZOOM Drogas",
    "address": "Latgales iela 400",
    "postal_code": 1063
  },
  {
    "city": "Rīga",
    "pickup_point": "Venipak Pickup, Venipak Rīgas termināls",
    "address": "Latgales iela 493",
    "postal_code": 2121
  }
]